ONEWEB-0565             
1 55146U 23004G   23059.58334491 -.00005861  00000+0 -10776-2 0  9990
2 55146  86.6227 264.0545 0016387  59.8927   2.1482 14.65870605  1308
ONEWEB-0565             
1 55146U 23004G   23059.75001157 -.00046541  00000+0 -85760-2 0  9994
2 55146  86.6227 263.9850 0016334  59.2043 161.7823 14.65881624  7513
ONEWEB-0565             
1 55146U 23004G   23059.91667824  .00048553  00000+0  88211-2 0  9998
2 55146  86.6227 263.9162 0016400  58.6612 321.2820 14.65834701  1303
ONEWEB-0565             
1 55146U 23004G   23060.25001157 -.00041189  00000+0 -75847-2 0  9999
2 55146  86.6226 263.7798 0016447  57.9594 279.8576 14.65877572  7593
ONEWEB-0565             
1 55146U 23004G   23060.91667824  .00053727  00000+0  97544-2 0  9998
2 55146  86.6225 263.5041 0016357  55.6841 197.9196 14.65833877  1302
ONEWEB-0565             
1 55146U 23004G   23060.91667824  .00053727  00000+0  97544-2 0  9998
2 55146  86.6225 263.5041 0016357  55.6841 197.9196 14.65833877  7689
ONEWEB-0565             
1 55146U 23004G   23061.82433475  .00001015  00000+0  18128-3 0  9997
2 55146  86.6223 263.1306 0016242  52.6529 307.6162 14.65863398  7820
ONEWEB-0565             
1 55146U 23004G   23062.50696916  .00000854  00000+0  15187-3 0  9996
2 55146  86.6222 262.8490 0016173  50.3539 309.9099 14.65866984  7927
ONEWEB-0565             
1 55146U 23004G   23062.91655020  .00001183  00000+0  21201-3 0  9992
2 55146  86.6222 262.6803 0016143  49.3472 310.9142 14.65867318  7983
